HAWK-11B                
1 62379U 24247C   26068.44730104  .00009093  00000+0  32842-3 0  9993
2 62379  45.0161 115.7610 0004690 333.0326  27.0314 15.28847070 67738
STARLINK-34095          
1 63809U 25092F   26068.32148483  .00028491  00000+0  10401-2 0  9990
2 63809  42.9993 175.0353 0000772 247.0553 113.0217 15.27604081 48551
